ONEWEB-0319             
1 49105U 21075AG  25223.80943658  .00000084  00000+0  18318-3 0  9996
2 49105  87.9023  67.4489 0001812 100.3609 259.7727 13.17651556192864
ONEWEB-0323             
1 49106U 21075AH  25223.89899846  .00000382  00000+0  10269-2 0  9992
2 49106  87.8852  52.1201 0001852 112.7172 247.4153 13.12442900193980
ONEWEB-0329             
1 49107U 21075AJ  25223.81788533 -.00000017  00000+0 -77786-4 0  9991
2 49107  87.9024  67.4517 0001687  94.5836 265.5489 13.17648579192844
ONEWEB-0330             
1 49108U 21075AK  25223.89468539  .00000002  00000+0 -28297-4 0  9997
2 49108  87.9028  67.4389 0001496  86.9813 273.1490 13.17650710193886
ONEWEB-0292             
1 49186U 21083A   25223.88451759  .00001179  00000+0  31933-2 0  9991
2 49186  87.8980  21.7101 0001864  98.2182 261.9159 13.13478946190325
ONEWEB-0303             
1 49187U 21083B   25223.95552772 -.00000070  00000+0 -20947-3 0  9992
2 49187  87.9135  36.8728 0001901  97.4259 262.7089 13.18685572189227
ONEWEB-0306             
1 49188U 21083C   25223.94563105 -.00000027  00000+0 -10073-3 0  9995
2 49188  87.9136  36.8601 0001751  84.9513 275.1819 13.18685336189267
ONEWEB-0307             
1 49189U 21083D   25223.95478601  .00000205  00000+0  52512-3 0  9993
2 49189  87.8969  21.6975 0001497  89.3062 270.8238 13.13471290190336
